BEIDOU-2 IGSO-1 (C06)   
1 36828U 10036A   25160.46519424 -.00000029  00000+0  00000+0 0  9996
2 36828  54.2749 166.3307 0049511 217.9309 148.8229  1.00279769 54360
BEIDOU-2 G4 (C04)       
1 37210U 10057A   25160.73586644 -.00000094  00000+0  00000+0 0  9995
2 37210   2.7226  70.4676 0004146 185.4148  67.4044  1.00272267 53550
BEIDOU-2 IGSO-2 (C07)   
1 37256U 10068A   25160.75145918 -.00000212  00000+0  00000+0 0  9996
2 37256  48.2215 276.4437 0046448 213.1017 145.5542  1.00292851 53058
BEIDOU-2 IGSO-3 (C08)   
1 37384U 11013A   25160.60739470 -.00000193  00000+0  00000+0 0  9993
2 37384  61.8741  43.6803 0030622 177.4231   3.8994  1.00268786 51924
BEIDOU-2 IGSO-4 (C09)   
1 37763U 11038A   25159.50882549  .00000065  00000+0  00000+0 0  9991
2 37763  54.5772 169.0169 0143758 231.1931 134.9810  1.00279951 50902
BEIDOU-2 IGSO-5 (C10)   
1 37948U 11073A   25160.74671061 -.00000193  00000+0  00000+0 0  9991
2 37948  48.3580 276.1468 0107659 219.9996 125.4281  1.00290452 49399
BEIDOU-2 G5 (C05)       
1 38091U 12008A   25160.89142000  .00000075  00000+0  00000+0 0  9990
2 38091   2.6460  71.2696 0008192 270.9008 296.0045  1.00268295 48638
BEIDOU-2 M3 (C11)       
1 38250U 12018A   25160.00449541 -.00000088  00000+0  00000+0 0  9996
2 38250  56.0740 317.4250 0020717 268.2109  91.5341  1.86233782 88996
BEIDOU-2 M4 (C12)       
1 38251U 12018B   25158.86264865 -.00000092  00000+0  00000+0 0  9997
2 38251  55.9783 316.7075 0011606 269.9129  89.9372  1.86232192 88973
BEIDOU-2 M6 (C14)       
1 38775U 12050B   25160.18380169 -.00000064  00000+0  00000+0 0  9997
2 38775  56.2138  75.2600 0014007 347.7852  12.1778  1.86231160 86362
BEIDOU-2 G6 (C02)       
1 38953U 12059A   25160.90591670 -.00000159  00000+0  00000+0 0  9990
2 38953   3.4752  77.4039 0009882 318.8343 272.4364  1.00274037 46178
BEIDOU-3S IGSO-1S (C31) 
1 40549U 15019A   25160.84142036 -.00000191  00000+0  00000+0 0  9990
2 40549  49.9027 299.9401 0039554 191.9586 164.3988  1.00280176 37334
BEIDOU-3S M2S (C58)     
1 40748U 15037A   25159.60275011 -.00000091  00000+0  00000+0 0  9992
2 40748  55.1993 314.8787 0008501 253.5423 106.3456  1.86229348 67161
BEIDOU-3S M1S (C57)     
1 40749U 15037B   25159.85768161 -.00000089  00000+0  00000+0 0  9990
2 40749  55.1957 314.8619 0003341  26.3449 333.6533  1.86253972 67179
BEIDOU-3S IGSO-2S (C56) 
1 40938U 15053A   25160.74809387 -.00000139  00000+0  00000+0 0  9990
2 40938  49.7981 263.2069 0059311 188.6888 171.7531  1.00269376 35623
BEIDOU-2 IGSO-6 (C13)   
1 41434U 16021A   25159.64385023 -.00000167  00000+0  00000+0 0  9992
2 41434  59.6980  41.7654 0054053 229.2349 312.3958  1.00289361 33737
BEIDOU-2 G7 (C03)       
1 41586U 16037A   25160.92090847 -.00000335  00000+0  00000+0 0  9994
2 41586   1.7472  68.8590 0010427   9.9795 261.8265  1.00272061  3154
BEIDOU-3 M1 (C19)       
1 43001U 17069A   25160.48641772 -.00000062  00000+0  00000+0 0  9991
2 43001  56.3628  75.3929 0010792 317.0688  42.8450  1.86231549 51667
BEIDOU-3 M2 (C20)       
1 43002U 17069B   25159.88742738 -.00000066  00000+0  00000+0 0  9992
2 43002  56.3616  75.4485 0009253 341.4147  18.5472  1.86230996 51641
BEIDOU-3 M7 (C27)       
1 43107U 18003A   25160.70689192 -.00000086  00000+0  00000+0 0  9996
2 43107  54.6570 315.2745 0004710  84.7453 275.2899  1.86232679 50410
BEIDOU-3 M8 (C28)       
1 43108U 18003B   25159.57635734 -.00000092  00000+0  00000+0 0  9990
2 43108  54.6507 315.2973 0002612 258.2248 101.7277  1.86231135 50401
BEIDOU-3 M4 (C22)       
1 43207U 18018A   25159.48069647 -.00000068  00000+0  00000+0 0  9993
2 43207  56.3210  75.5029 0007383   6.8266 353.1777  1.86231461 49785
BEIDOU-3 M3 (C21)       
1 43208U 18018B   25160.08419427 -.00000065  00000+0  00000+0 0  9994
2 43208  56.3209  75.4871 0008899 330.8082  29.1384  1.86231356 49795
BEIDOU-3 M9 (C29)       
1 43245U 18029A   25160.30197602 -.00000087  00000+0  00000+0 0  9994
2 43245  54.5302 312.9610 0000631 146.0901 213.8941  1.86232975 48959
BEIDOU-3 M10 (C30)      
1 43246U 18029B   25160.23451269 -.00000088  00000+0  00000+0 0  9990
2 43246  54.5278 312.9906 0003792  30.0417 329.9602  1.86229288 48939
BEIDOU-2 IGSO-7 (C16)   
1 43539U 18057A   25159.60460478 -.00000029  00000+0  00000+0 0  9992
2 43539  55.1651 166.2924 0089483 236.5774 184.2057  1.00259818 25384
BEIDOU-3 M5 (C23)       
1 43581U 18062A   25159.38587411  .00000099  00000+0  00000+0 0  9993
2 43581  54.0998 195.0127 0005361 280.6518  79.3725  1.86228926 46678
BEIDOU-3 M6 (C24)       
1 43582U 18062B   25159.78693699  .00000100  00000+0  00000+0 0  9997
2 43582  54.0995 194.9883 0004451   4.2369 355.8521  1.86229751 46680
BEIDOU-3 M12 (C26)      
1 43602U 18067A   25160.79660038  .00000100  00000+0  00000+0 0  9999
2 43602  54.1929 193.6681 0007157  24.4010 335.7166  1.86227939 46189
BEIDOU-3 M11 (C25)      
1 43603U 18067B   25159.85670897  .00000101  00000+0  00000+0 0  9990
2 43603  54.1901 193.6642 0004020   7.0214 353.0680  1.86227427 46193
BEIDOU-3 M13 (C32)      
1 43622U 18072A   25159.27831939 -.00000070  00000+0  00000+0 0  9995
2 43622  56.2933  75.0305 0007483 319.5452  40.3939  1.86231509 45695
BEIDOU-3 M14 (C33)      
1 43623U 18072B   25160.21770994 -.00000064  00000+0  00000+0 0  9998
2 43623  56.2959  74.9930 0006043 348.5206  11.4632  1.86231531 45702
BEIDOU-3 M16 (C35)      
1 43647U 18078A   25159.84065803 -.00000090  00000+0  00000+0 0  9992
2 43647  54.4268 313.0458 0007153  32.3515 327.6726  1.86232412 45207
BEIDOU-3 M15 (C34)      
1 43648U 18078B   25158.89600225 -.00000094  00000+0  00000+0 0  9994
2 43648  54.4235 313.0803 0004252  48.2280 311.7895  1.86232496 45201
BEIDOU-3 G1 (C59)       
1 43683U 18085A   25160.87827028 -.00000258  00000+0  00000+0 0  9996
2 43683   2.6511 108.7047 0004485 343.4674 262.4154  1.00277139 24325
BEIDOU-3 M17 (C36)      
1 43706U 18093A   25160.12536618  .00000100  00000+0  00000+0 0  9996
2 43706  54.1832 194.9523 0010036 284.9192  75.0551  1.86228610 44592
BEIDOU-3 M18 (C37)      
1 43707U 18093B   25160.52479324  .00000100  00000+0  00000+0 0  9991
2 43707  54.1840 194.9305 0007880 311.5506  48.4674  1.86230087 44590
BEIDOU-3 IGSO-1 (C38)   
1 44204U 19023A   25160.66707059 -.00000223  00000+0  00000+0 0  9999
2 44204  58.1650  41.4973 0023435 218.3340 354.3774  1.00300021  3471
BEIDOU-2 G8 (C01)       
1 44231U 19027A   25160.87965317 -.00000229  00000+0  00000+0 0  9995
2 44231   1.6732  75.1150 0003842 259.6994  24.8416  1.00267716 22341
BEIDOU-3 IGSO-2 (C39)   
1 44337U 19035A   25160.62483799 -.00000043  00000+0  00000+0 0  9997
2 44337  55.2102 162.1336 0035773 210.6360 230.4257  1.00273698 21960
BEIDOU-3 M24 (C46)      
1 44542U 19061A   25160.59575248  .00000100  00000+0  00000+0 0  9994
2 44542  54.4110 195.2935 0007863 350.4991   9.5720  1.86229247 38853
BEIDOU-3 M23 (C45)      
1 44543U 19061B   25160.73093566  .00000100  00000+0  00000+0 0  9999
2 44543  54.4093 195.2575 0005366 329.6086  33.8361  1.86229514 38862
BEIDOU-3 IGSO-3 (C40)   
1 44709U 19073A   25159.75462007 -.00000216  00000+0  00000+0 0  9995
2 44709  55.4411 284.9276 0045193 183.2566 176.6624  1.00247646 20719
BEIDOU-3 M22 (C44)      
1 44793U 19078A   25158.82711708 -.00000095  00000+0  00000+0 0  9990
2 44793  54.2747 312.9694 0006168  41.3196 318.7082  1.86232319 37674
BEIDOU-3 M21 (C43)      
1 44794U 19078B   25158.96039711 -.00000094  00000+0  00000+0 0  9992
2 44794  54.2479 312.9335 0004112  40.0503 319.9610  1.86227914 37680
BEIDOU-3 M19 (C41)      
1 44864U 19090A   25160.86641767 -.00000059  00000+0  00000+0 0  9997
2 44864  56.2286  75.1296 0018135 291.7129 100.0841  1.86231841 37307
BEIDOU-3 M20 (C42)      
1 44865U 19090B   25160.36720278 -.00000063  00000+0  00000+0 0  9993
2 44865  56.2299  75.1801 0016037 305.2972 201.4525  1.86231745 37274
BEIDOU-3 G2 (C60)       
1 45344U 20017A   25160.81014894 -.00000124  00000+0  00000+0 0  9995
2 45344   2.8603  40.3218 0002346  24.8751 204.9053  1.00271822 19524
BEIDOU-3 G3 (C61)       
1 45807U 20040A   25160.92092411 -.00000335  00000+0  00000+0 0  9992
2 45807   1.5449  63.9242 0005235 350.4268 286.2555  1.00275206 18339
BEIDOU-3 G4 (C62)       
1 56564U 23066A   25160.81711356 -.00000090  00000+0  00000+0 0  9997
2 56564   1.2413 292.4444 0006546 182.1957 238.0056  1.00272179  7664
BEIDOU-3 M28 (C50)      
1 58654U 23207A   25160.11408862 -.00000066  00000+0  00000+0 0  9997
2 58654  55.4168  74.9226 0003403 328.6291  31.3473  1.86230023  9892
BEIDOU-3 M26 (C48)      
1 58655U 23207B   25160.45032406 -.00000064  00000+0  00000+0 0  9990
2 58655  55.4190  74.8971 0003461 302.5619  57.4027  1.86231785  9882
BEIDOU-3 M25 (C47)      
1 61186U 24168B   25158.60127821 -.00000095  00000+0  00000+0 0  9994
2 61186  54.8039 315.2300 0003218 296.5946  21.4472  1.86230383  4808
BEIDOU-3 M27 (C49)      
1 61187U 24168C   25160.48555686 -.00000087  00000+0  00000+0 0  9999
2 61187  54.7980 315.1497 0001688  36.8957 239.3417  1.86230440  2312
